[{"OBJECT_NAME":"PLEIADES 1B","OBJECT_ID":"2012-068A","EPOCH":"2026-03-09T22:47:56.825664","MEAN_MOTION":14.5852732,"ECCENTRICITY":0.0001609,"INCLINATION":98.2009,"RA_OF_ASC_NODE":145.3433,"ARG_OF_PERICENTER":85.836,"MEAN_ANOMALY":274.3023,"EPHEMERIS_TYPE":0,"CLASSIFICATION_TYPE":"U","NORAD_CAT_ID":39019,"ELEMENT_SET_NO":999,"REV_AT_EPOCH":70638,"BSTAR":0.0001012296,"MEAN_MOTION_DOT":4.25e-6,"MEAN_MOTION_DDOT":0},{"OBJECT_NAME":"FENGYUN 1C DEB","OBJECT_ID":"1999-025EFM","EPOCH":"2026-03-09T04:10:27.031872","MEAN_MOTION":14.41471914,"ECCENTRICITY":0.0096386,"INCLINATION":99.022,"RA_OF_ASC_NODE":153.1768,"ARG_OF_PERICENTER":73.3045,"MEAN_ANOMALY":287.8695,"EPHEMERIS_TYPE":0,"CLASSIFICATION_TYPE":"U","NORAD_CAT_ID":37077,"ELEMENT_SET_NO":999,"REV_AT_EPOCH":86200,"BSTAR":0.00040990208,"MEAN_MOTION_DOT":1.355e-5,"MEAN_MOTION_DDOT":0}]
